{
  "CSCN-A2223": {
    "tle": [
      "1 00040U 59005  A 59269.3553331 .04655228 +00000-0 +00000-0 0  9998",
      "2 00040 085.9943 186.4819 0140209 012.7649 347.4143 14.48843120006800"
    ],
    "country": "CN",
    "role": "LEO",
    "networkSystem": "",
    "type": "",
    "networkState": "",
    "toSatellitePolyLines": [
      {
        "id": "CSCN-A2223 - CSCN-A2224",
        "show": [
          {
            "interval": "1706760000000/1706846400000",
            "boolean": true,
            "state": "default"
          }
        ]
      },
      {
        "id": "CSCN-A2223 - CSCN-A2323",
        "show": [
          {
            "interval": "1706760000000/1706846400000",
            "boolean": true,
            "state": "default"
          }
        ]
      }
    ],
    "toRadarPolyLines": []
  },
  "CSCN-A2224": {
    "tle": [
      "1 00041U 59005  A 59269.3567219 .04655228 +00000-0 +00000-0 0  9998",
      "2 00041 085.9945 186.4819 0140209 012.7649 347.4143 14.48843120006800"
    ],
    "country": "CN",
    "role": "LEO",
    "networkSystem": "",
    "type": "",
    "networkState": "",
    "toSatellitePolyLines": [
      {
        "id": "CSCN-A2224 - CSCN-A2225",
        "show": [
          {
            "interval": "1706760000000/1706846400000",
            "boolean": true,
            "state": "default"
          }
        ]
      },
      {
        "id": "CSCN-A2224 - CSCN-A2324",
        "show": [
          {
            "interval": "1706760000000/1706846400000",
            "boolean": true,
            "state": "default"
          }
        ]
      }
    ],
    "toRadarPolyLines": []
  },
  "CSCN-A2225": {
    "tle": [
      "1 00042U 59005  A 59269.3581107 .04655228 +00000-0 +00000-0 0  9998",
      "2 00042 085.9947 186.4819 0140209 012.7649 347.4143 14.48843120006800"
    ],
    "country": "CN",
    "role": "LEO",
    "networkSystem": "",
    "type": "",
    "networkState": "",
    "toSatellitePolyLines": [
      {
        "id": "CSCN-A2225 - CSCN-A2226",
        "show": [
          {
            "interval": "1706760000000/1706846400000",
            "boolean": true,
            "state": "default"
          }
        ]
      },
      {
        "id": "CSCN-A2225 - CSCN-A2325",
        "show": [
          {
            "interval": "1706760000000/1706846400000",
            "boolean": true,
            "state": "default"
          }
        ]
      }
    ],
    "toRadarPolyLines": []
  },
  "CSCN-A2226": {
    "tle": [
      "1 00043U 59005  A 59269.3594995 .04655228 +00000-0 +00000-0 0  9998",
      "2 00043 085.9949 186.4819 0140209 012.7649 347.4143 14.48843120006800"
    ],
    "country": "CN",
    "role": "LEO",
    "networkSystem": "",
    "type": "",
    "networkState": "",
    "toSatellitePolyLines": [
      {
        "id": "CSCN-A2226 - CSCN-A2227",
        "show": [
          {
            "interval": "1706760000000/1706846400000",
            "boolean": true,
            "state": "default"
          }
        ]
      },
      {
        "id": "CSCN-A2226 - CSCN-A2326",
        "show": [
          {
            "interval": "1706760000000/1706846400000",
            "boolean": true,
            "state": "default"
          }
        ]
      }
    ],
    "toRadarPolyLines": []
  },
  "CSCN-A2227": {
    "tle": [
      "1 00044U 59005  A 59269.3608883 .04655228 +00000-0 +00000-0 0  9998",
      "2 00044 085.9951 186.4819 0140209 012.7649 347.4143 14.48843120006800"
    ],
    "country": "CN",
    "role": "LEO",
    "networkSystem": "",
    "type": "",
    "networkState": "",
    "toSatellitePolyLines": [
      {
        "id": "CSCN-A2227 - CSCN-A2228",
        "show": [
          {
            "interval": "1706760000000/1706846400000",
            "boolean": true,
            "state": "default"
          }
        ]
      },
      {
        "id": "CSCN-A2227 - CSCN-A2327",
        "show": [
          {
            "interval": "1706760000000/1706846400000",
            "boolean": true,
            "state": "default"
          }
        ]
      }
    ],
    "toRadarPolyLines": []
  },
  "CSCN-A2228": {
    "tle": [
      "1 00045U 59005  A 59269.3622771 .04655228 +00000-0 +00000-0 0  9998",
      "2 00045 085.9953 186.4819 0140209 012.7649 347.4143 14.48843120006800"
    ],
    "country": "CN",
    "role": "LEO",
    "networkSystem": "",
    "type": "",
    "networkState": "",
    "toSatellitePolyLines": [
      {
        "id": "CSCN-A2228 - CSCN-A2229",
        "show": [
          {
            "interval": "1706760000000/1706846400000",
            "boolean": true,
            "state": "default"
          }
        ]
      },
      {
        "id": "CSCN-A2228 - CSCN-A2328",
        "show": [
          {
            "interval": "1706760000000/1706846400000",
            "boolean": true,
            "state": "default"
          }
        ]
      }
    ],
    "toRadarPolyLines": []
  },
  "CSCN-A2229": {
    "tle": [
      "1 00046U 59005  A 59269.3636659 .04655228 +00000-0 +00000-0 0  9998",
      "2 00046 085.9955 186.4819 0140209 012.7649 347.4143 14.48843120006800"
    ],
    "country": "CN",
    "role": "LEO",
    "networkSystem": "",
    "type": "",
    "networkState": "",
    "toSatellitePolyLines": [
      {
        "id": "CSCN-A2229 - CSCN-A2230",
        "show": [
          {
            "interval": "1706760000000/1706846400000",
            "boolean": true,
            "state": "default"
          }
        ]
      },
      {
        "id": "CSCN-A2229 - CSCN-A2329",
        "show": [
          {
            "interval": "1706760000000/1706846400000",
            "boolean": true,
            "state": "default"
          }
        ]
      }
    ],
    "toRadarPolyLines": []
  },
  "CSCN-A2230": {
    "tle": [
      "1 00047U 59005  A 59269.3650547 .04655228 +00000-0 +00000-0 0  9998",
      "2 00047 085.9957 186.4819 0140209 012.7649 347.4143 14.48843120006800"
    ],
    "country": "CN",
    "role": "LEO",
    "networkSystem": "",
    "type": "",
    "networkState": "",
    "toSatellitePolyLines": [
      {
        "id": "CSCN-A2230 - CSCN-A2231",
        "show": [
          {
            "interval": "1706760000000/1706846400000",
            "boolean": true,
            "state": "default"
          }
        ]
      },
      {
        "id": "CSCN-A2230 - CSCN-A2330",
        "show": [
          {
            "interval": "1706760000000/1706846400000",
            "boolean": true,
            "state": "default"
          }
        ]
      }
    ],
    "toRadarPolyLines": []
  },
  "CSCN-A2231": {
    "tle": [
      "1 00048U 59005  A 59269.3664435 .04655228 +00000-0 +00000-0 0  9998",
      "2 00048 085.9959 186.4819 0140209 012.7649 347.4143 14.48843120006800"
    ],
    "country": "CN",
    "role": "LEO",
    "networkSystem": "",
    "type": "",
    "networkState": "",
    "toSatellitePolyLines": [
      {
        "id": "CSCN-A2231 - CSCN-A2232",
        "show": [
          {
            "interval": "1706760000000/1706846400000",
            "boolean": true,
            "state": "default"
          }
        ]
      },
      {
        "id": "CSCN-A2231 - CSCN-A2331",
        "show": [
          {
            "interval": "1706760000000/1706846400000",
            "boolean": true,
            "state": "default"
          }
        ]
      }
    ],
    "toRadarPolyLines": []
  },
  "CSCN-A2232": {
    "tle": [
      "1 00049U 59005  A 59269.3678323 .04655228 +00000-0 +00000-0 0  9998",
      "2 00049 085.9961 186.4819 0140209 012.7649 347.4143 14.48843120006800"
    ],
    "country": "CN",
    "role": "LEO",
    "networkSystem": "",
    "type": "",
    "networkState": "",
    "toSatellitePolyLines": [
      {
        "id": "CSCN-A2232 - CSCN-A2233",
        "show": [
          {
            "interval": "1706760000000/1706846400000",
            "boolean": true,
            "state": "default"
          }
        ]
      },
      {
        "id": "CSCN-A2232 - CSCN-A2332",
        "show": [
          {
            "interval": "1706760000000/1706846400000",
            "boolean": true,
            "state": "default"
          }
        ]
      }
    ],
    "toRadarPolyLines": []
  },
  "CSCN-A2233": {
    "tle": [
      "1 00050U 59005  A 59269.3691811 .04655228 +00000-0 +00000-0 0  9998",
      "2 00050 085.9963 186.4819 0140209 012.7649 347.4143 14.48843120006800"
    ],
    "country": "CN",
    "role": "LEO",
    "networkSystem": "",
    "type": "",
    "networkState": "",
    "toSatellitePolyLines": [
      {
        "id": "CSCN-A2233 - CSCN-A2234",
        "show": [
          {
            "interval": "1706760000000/1706846400000",
            "boolean": true,
            "state": "default"
          }
        ]
      },
      {
        "id": "CSCN-A2233 - CSCN-A2333",
        "show": [
          {
            "interval": "1706760000000/1706846400000",
            "boolean": true,
            "state": "default"
          }
        ]
      }
    ],
    "toRadarPolyLines": []
  },
  "CSCN-A2234": {
    "tle": [
      "1 00051U 59005  A 59269.3706099 .04655228 +00000-0 +00000-0 0  9998",
      "2 00052 085.9965 186.4819 0140209 012.7649 347.4143 14.48843120006800"
    ],
    "country": "CN",
    "role": "LEO",
    "networkSystem": "",
    "type": "",
    "networkState": "",
    "toSatellitePolyLines": [
      {
        "id": "CSCN-A2234 - CSCN-A2235",
        "show": [
          {
            "interval": "1706760000000/1706846400000",
            "boolean": true,
            "state": "default"
          }
        ]
      },
      {
        "id": "CSCN-A2234 - CSCN-A2334",
        "show": [
          {
            "interval": "1706760000000/1706846400000",
            "boolean": true,
            "state": "default"
          }
        ]
      }
    ],
    "toRadarPolyLines": []
  }
}